ONEWEB-0311             
1 49097U 21075Y   25035.25825555  .00000037  00000+0  61893-4 0  9996
2 49097  87.9073 105.0666 0001607  90.3202 269.8113 13.17648183168051
ONEWEB-0313             
1 49099U 21075AA  25035.58212056 -.00000075  00000+0 -22655-3 0  9996
2 49099  87.9074 105.0492 0001891  93.3821 266.7527 13.17648421168067
ONEWEB-0314             
1 49100U 21075AB  25035.24475058  .00000075  00000+0  15890-3 0  9996
2 49100  87.9067 105.0527 0001949  89.8261 270.3094 13.17650174167992
ONEWEB-0315             
1 49101U 21075AC  25035.53317440  .00000123  00000+0  30620-3 0  9991
2 49101  87.8833  89.7343 0001502  93.3247 266.8054 13.12440393169898
ONEWEB-0316             
1 49102U 21075AD  25035.48555529 -.00000028  00000+0 -10450-3 0  9993
2 49102  87.9062  74.4633 0001731  90.4534 269.6796 13.18686122171613
ONEWEB-0317             
1 49103U 21075AE  25035.52669320  .00000269  00000+0  71212-3 0  9992
2 49103  87.8835  89.7488 0002265 108.7043 251.4332 13.12439544170903
ONEWEB-0318             
1 49104U 21075AF  25035.48239303 -.00000002  00000+0 -38224-4 0  9996
2 49104  87.9059  74.4514 0001688  88.4906 271.6419 13.18685748171573
